HAWK-7C                 
1 56200U 23054Y   26068.68891713  .00007947  00000+0  30980-3 0  9991
2 56200  97.2829 317.5849 0003651  52.2090 307.9479 15.26207266161848
STARLINK-31075          
1 58594U 23200F   26067.35981993  .00000279  00000+0  20095-4 0  9993
2 58594  43.0013 175.8265 0001718 190.3160 169.7657 15.26747945123417
